ATLAS CENTAUR R/B       
1 06155U 72065B   26056.26101857  .00001324  00000+0  18336-3 0  9999
2 06155  35.0027  18.5863 0034460 265.5448  94.1315 14.77645706839424
SL-8 R/B                
1 08459U 75112B   26056.39972825  .00000174  00000+0  65877-4 0  9994
2 08459  74.0603  41.5196 0014740 139.6141 220.6110 14.38195545630102
SL-3 R/B                
1 10114U 77057B   26056.54509366  .00011549  00000+0  24588-3 0  9999
2 10114  97.5757 227.9361 0006697 334.9349  25.1573 15.45100042666454
SEASAT 1                
1 10967U 78064A   26056.04506930  .00000169  00000+0  85631-4 0  9996
2 10967 108.0140  98.9651 0002002 290.7088  69.3843 14.46148978504683
SL-14 R/B               
1 11267U 79011B   26056.50782752  .00000526  00000+0  49395-4 0  9996
2 11267  82.5227 108.1322 0017625  97.8157 262.5064 14.91891828526964
SL-8 R/B                
1 11574U 79089B   26056.53821866  .00000212  00000+0  72174-4 0  9998
2 11574  74.0681 113.5391 0017045 287.4869  72.4424 14.42342178434358
SL-14 R/B               
1 11672U 80005B   26056.24438037  .00000578  00000+0  55910-4 0  9993
2 11672  82.5165 319.0395 0015052 199.6834 160.3806 14.90913065474635
SL-8 R/B                
1 12139U 81003B   26056.15043484  .00014931  00000+0  38907-3 0  9993
2 12139  82.9396 301.6143 0262714 222.2187 135.8555 15.10456588312785
SL-3 R/B                
1 12465U 81046B   26056.58338111  .00011436  00000+0  26881-3 0  9998
2 12465  81.2323 304.2765 0020506  62.7198 297.6130 15.41632522436565
SL-3 R/B                
1 12904U 81103B   26056.60408036  .00005163  00000+0  22989-3 0  9992
2 12904  81.1570 227.6089 0012790 329.6246  30.4243 15.21207808971394
SL-3 R/B                
1 13068U 82013B   26056.55153831  .00004825  00000+0  20970-3 0  9991
2 13068  81.1759 174.9923 0022015 218.7210 141.2445 15.21866221402503
SL-3 R/B                
1 13154U 82039B   26056.59683664  .00002302  00000+0  13886-3 0  9997
2 13154  81.1587 229.9028 0029956   3.9311 356.2144 15.09999615379813
